NORAD_CAT_ID,OBJECT_NAME,OBJECT_TYPE,EPOCH,MEAN_MOTION,ECCENTRICITY,INCLINATION,RA_OF_ASC_NODE,ARG_OF_PERICENTER,MEAN_ANOMALY,BSTAR,MEAN_MOTION_DOT,MEAN_MOTION_DDOT,TLE_LINE0,TLE_LINE1,TLE_LINE2,SEMIMAJOR_AXIS,PERIOD,APOGEE,PERIGEE,DECAYED
53139.0,STARLINK-4185,PAYLOAD,2023-10-10 03:17:23,15.08851634,0.000142,53.2155,171.5649,70.0065,290.108,0.0020449,0.00032417,0.0,0 STARLINK-4185,1 53139U 22083H   23283.13707583  .00032417  00000-0  20449-2 0  9996,2 53139  53.2155 171.5649 0001420  70.0065 290.1080 15.08851634 68131,6917.845,95.437,540.692,538.727,0.0
53139.0,STARLINK-4185,PAYLOAD,2023-10-10 20:46:37,15.08850215,0.0001792,53.2154,168.2876,124.8891,235.227,0.00124,0.00019507,0.0,0 STARLINK-4185,1 53139U 22083H   23283.86571586  .00019507  00000-0  12400-2 0  9991,2 53139  53.2154 168.2876 0001792 124.8891 235.2270 15.08850215 68878,6917.849,95.437,540.954,538.474,0.0
53139.0,STARLINK-4185,PAYLOAD,2023-10-11 09:29:42,15.08841958,7.1e-05,53.2158,165.9147,90.13,269.9773,0.00089594,0.00014001,0.0,0 STARLINK-4185,1 53139U 22083H   23284.39563552  .00014001  00000-0  89594-3 0  9997,2 53139  53.2158 165.9147 0000710  90.1300 269.9773 15.08841958 68951,6917.874,95.437,540.231,539.248,0.0
53139.0,STARLINK-4185,PAYLOAD,2023-10-11 20:37:25,15.08840526,0.0001388,53.2155,163.8327,91.9366,268.1785,0.0013853,0.00021828,0.0,0 STARLINK-4185,1 53139U 22083H   23284.85932223  .00021828  00000-0  13853-2 0  9992,2 53139  53.2155 163.8327 0001388  91.9366 268.1785 15.08840526 69021,6917.879,95.438,540.704,538.784,0.0
53139.0,STARLINK-4185,PAYLOAD,2023-10-12 09:20:30,15.08837081,0.0001288,53.2148,161.453,92.422,267.692,0.00043251,6.602e-05,0.0,0 STARLINK-4185,1 53139U 22083H   23285.38924292  .00006602  00000-0  43251-3 0  9997,2 53139  53.2148 161.4530 0001288  92.4220 267.6920 15.08837081 68472,6917.889,95.438,540.645,538.863,0.0
53139.0,STARLINK-4185,PAYLOAD,2023-10-12 20:28:12,15.08844152,0.0001269,53.2148,159.3719,88.7658,271.3479,0.0004294,6.553e-05,0.0,0 STARLINK-4185,1 53139U 22083H   23285.85292207  .00006553  00000-0  42940-3 0  9992,2 53139  53.2148 159.3719 0001269  88.7658 271.3479 15.08844152 69175,6917.868,95.437,540.611,538.855,0.0
53139.0,STARLINK-4185,PAYLOAD,2023-10-12 22:03:35,15.08848458,0.0001413,53.2155,159.0746,86.6938,273.4216,0.00037988,5.764e-05,0.0,0 STARLINK-4185,1 53139U 22083H   23285.91916082  .00005764  00000-0  37988-3 0  9992,2 53139  53.2155 159.0746 0001413  86.6938 273.4216 15.08848458 68555,6917.855,95.437,540.697,538.742,0.0
53139.0,STARLINK-4185,PAYLOAD,2023-10-13 09:11:17,15.08846779,0.0001175,53.2154,156.9931,97.3473,262.7652,0.00025355,3.75e-05,0.0,0 STARLINK-4185,1 53139U 22083H   23286.38283872  .00003750  00000-0  25355-3 0  9996,2 53139  53.2154 156.9931 0001175  97.3473 262.7652 15.08846779 68621,6917.86,95.437,540.538,538.912,0.0
53139.0,STARLINK-4185,PAYLOAD,2023-10-13 21:54:22,15.08857053,0.0001501,53.2157,154.6136,99.1227,260.9935,0.00055524,8.564e-05,0.0,0 STARLINK-4185,1 53139U 22083H   23286.91275651  .00008564  00000-0  55524-3 0  9990,2 53139  53.2157 154.6136 0001501  99.1227 260.9935 15.08857053 68706,6917.828,95.436,540.732,538.655,0.0
53139.0,STARLINK-4185,PAYLOAD,2023-10-14 01:05:08,15.08861804,0.0001572,53.2158,154.0182,100.9711,259.1458,0.00067176,0.00010426,0.0,0 STARLINK-4185,1 53139U 22083H   23287.04523442  .00010426  00000-0  67176-3 0  9995,2 53139  53.2158 154.0182 0001572 100.9711 259.1458 15.08861804 69350,6917.814,95.436,540.766,538.591,0.0
53139.0,STARLINK-4185,PAYLOAD,2023-10-14 20:09:46,15.08840406,0.0001481,53.2157,150.4477,105.0216,255.094,0.00032151,4.833e-05,0.0,0 STARLINK-4185,1 53139U 22083H   23287.84011962  .00004833  00000-0  32151-3 0  9992,2 53139  53.2157 150.4477 0001481 105.0216 255.0940 15.08840406 69470,6917.879,95.438,540.769,538.72,0.0
53139.0,STARLINK-4185,PAYLOAD,2023-10-14 21:45:09,15.0883911,0.0001358,53.2153,150.1522,80.8696,279.2449,0.00023927,3.522e-05,0.0,0 STARLINK-4185,1 53139U 22083H   23287.90636119  .00003522  00000-0  23927-3 0  9991,2 53139  53.2153 150.1522 0001358  80.8696 279.2449 15.08839110 68852,6917.883,95.438,540.688,538.809,0.0
53139.0,STARLINK-4185,PAYLOAD,2023-10-15 00:55:55,15.08838975,0.0001386,53.2154,149.558,79.5449,280.5699,0.00031469,4.724e-05,0.0,0 STARLINK-4185,1 53139U 22083H   23288.03884183  .00004724  00000-0  31469-3 0  9997,2 53139  53.2154 149.5580 0001386  79.5449 280.5699 15.08838975 68873,6917.884,95.438,540.707,538.79,0.0
53139.0,STARLINK-4185,PAYLOAD,2023-10-15 21:35:56,15.08844131,0.0001383,53.2151,145.6922,76.9575,283.1571,0.00042994,6.562e-05,0.0,0 STARLINK-4185,1 53139U 22083H   23288.89996357  .00006562  00000-0  42994-3 0  9995,2 53139  53.2151 145.6922 0001383  76.9575 283.1571 15.08844131 69639,6917.868,95.437,540.69,538.776,0.0
53139.0,STARLINK-4185,PAYLOAD,2023-10-16 15:05:11,15.08841141,0.0001491,53.2158,142.4245,89.1797,270.9366,0.00020357,2.953e-05,0.0,0 STARLINK-4185,1 53139U 22083H   23289.62860460  .00002953  00000-0  20357-3 0  9991,2 53139  53.2158 142.4245 0001491  89.1797 270.9366 15.08841141 69118,6917.877,95.437,540.773,538.71,0.0
53139.0,STARLINK-4185,PAYLOAD,2023-10-16 16:40:34,15.08837004,0.000141,53.2145,142.1241,78.3621,281.7529,7.3357e-05,8.8e-06,0.0,0 STARLINK-4185,1 53139U 22083H   23289.69484556  .00000880  00000-0  73357-4 0  9992,2 53139  53.2145 142.1241 0001410  78.3621 281.7529 15.08837004 69758,6917.89,95.438,540.73,538.779,0.0
53139.0,STARLINK-4185,PAYLOAD,2023-10-17 22:52:53,15.08847558,0.0001329,53.2134,136.4761,83.6605,276.4539,0.0001748,2.496e-05,0.0,0 STARLINK-4185,1 53139U 22083H   23290.95340209  .00002496  00000-0  17480-3 0  9998,2 53139  53.2134 136.4761 0001329  83.6605 276.4539 15.08847558 69318,6917.857,95.437,540.642,538.803,0.0
53139.0,STARLINK-4185,PAYLOAD,2023-10-18 13:11:22,15.08846898,0.0002224,53.2112,133.798,75.9554,284.1686,0.00023476,3.451e-05,0.0,0 STARLINK-4185,1 53139U 22083H   23291.54956469  .00003451  00000-0  23476-3 0  9999,2 53139  53.2112 133.7980 0002224  75.9554 284.1686 15.08846898 70035,6917.859,95.437,541.263,538.186,0.0
53139.0,STARLINK-4185,PAYLOAD,2023-10-18 16:22:08,15.08840724,0.0001371,53.2131,133.2045,82.2539,277.8609,9.9367e-05,1.294e-05,0.0,0 STARLINK-4185,1 53139U 22083H   23291.68204425  .00001294  00000-0  99367-4 0  9998,2 53139  53.2131 133.2045 0001371  82.2539 277.8609 15.08840724 69426,6917.878,95.438,540.692,538.795,0.0
53139.0,STARLINK-4185,PAYLOAD,2023-10-19 16:12:55,15.08848232,0.000214,53.2136,128.7407,77.5018,282.6213,0.00020915,3.043e-05,0.0,0 STARLINK-4185,1 53139U 22083H   23292.67564416  .00003043  00000-0  20915-3 0  9993,2 53139  53.2136 128.7407 0002140  77.5018 282.6213 15.08848232 69579,6917.855,95.437,541.201,538.24,0.0
53139.0,STARLINK-4185,PAYLOAD,2023-10-19 22:34:27,15.08850574,0.0001621,53.2137,127.5518,91.5457,268.5721,0.00019344,2.793e-05,0.0,0 STARLINK-4185,1 53139U 22083H   23292.94059969  .00002793  00000-0  19344-3 0  9990,2 53139  53.2137 127.5518 0001621  91.5457 268.5721 15.08850574 70241,6917.848,95.437,540.834,538.592,0.0
53139.0,STARLINK-4185,PAYLOAD,2023-10-20 12:52:57,15.08827283,0.0002994,53.2097,124.8765,89.9597,270.1738,0.00069561,0.00010796,0.0,0 STARLINK-4185,1 53139U 22083H   23293.53677352  .00010796  00000-0  69561-3 0  9996,2 53139  53.2097 124.8765 0002994  89.9597 270.1738 15.08827283 70338,6917.919,95.438,541.855,537.713,0.0
53139.0,STARLINK-4185,PAYLOAD,2023-10-20 16:03:42,15.08838521,0.0001225,53.2145,124.2831,79.7632,280.3498,4.8894e-05,4.9e-06,0.0,0 STARLINK-4185,1 53139U 22083H   23293.66924557  .00000490  00000-0  48894-4 0  9999,2 53139  53.2145 124.2831 0001225  79.7632 280.3498 15.08838521 70358,6917.885,95.438,540.597,538.902,0.0
53139.0,STARLINK-4185,PAYLOAD,2023-10-21 12:43:43,15.08849288,0.0001133,53.2148,120.416,88.7858,271.3264,-8.6533e-05,-1.665e-05,0.0,0 STARLINK-4185,1 53139U 22083H   23294.53036103 -.00001665  00000-0 -86533-4 0  9996,2 53139  53.2148 120.4160 0001133  88.7858 271.3264 15.08849288 69858,6917.852,95.437,540.501,538.933,0.0
53139.0,STARLINK-4185,PAYLOAD,2023-10-21 19:05:19,15.08776813,0.0001567,53.2145,119.2266,116.0731,244.0423,0.0023767,0.00037674,0.0,0 STARLINK-4185,1 53139U 22083H   23294.79536095  .00037674  00000-0  23767-2 0  9994,2 53139  53.2145 119.2266 0001567 116.0731 244.0423 15.08776813 70527,6918.074,95.442,541.023,538.854,0.0
53139.0,STARLINK-4185,PAYLOAD,2023-10-21 22:16:05,15.08789829,0.0001733,53.2146,118.6307,106.4555,253.6628,0.0020116,0.00031828,0.0,0 STARLINK-4185,1 53139U 22083H   23294.92783661  .00031828  00000-0  20116-2 0  9992,2 53139  53.2146 118.6307 0001733 106.4555 253.6628 15.08789829 69914,6918.034,95.441,541.098,538.7,0.0
53139.0,STARLINK-4185,PAYLOAD,2023-10-22 04:37:34,15.08841238,0.0001363,53.2153,117.4401,107.3738,252.7404,0.00019083,2.751e-05,0.0,0 STARLINK-4185,1 53139U 22083H   23295.19276330  .00002751  00000-0  19083-3 0  9997,2 53139  53.2153 117.4401 0001363 107.3738 252.7404 15.08841238 70586,6917.877,95.437,540.685,538.799,0.0
53139.0,STARLINK-4185,PAYLOAD,2023-10-22 18:56:03,15.08832521,0.00013,53.215,114.7664,91.5836,268.5305,4.1507e-05,3.73e-06,0.0,0 STARLINK-4185,1 53139U 22083H   23295.78893122  .00000373  00000-0  41507-4 0  9991,2 53139  53.2150 114.7664 0001300  91.5836 268.5305 15.08832521 70678,6917.903,95.438,540.668,538.869,0.0
53139.0,STARLINK-4185,PAYLOAD,2023-10-23 18:46:50,15.08848673,0.0001281,53.2157,110.3062,91.6844,268.4295,0.00064559,0.00010004,0.0,0 STARLINK-4185,1 53139U 22083H   23296.78252899  .00010004  00000-0  64559-3 0  9995,2 53139  53.2157 110.3062 0001281  91.6844 268.4295 15.08848673 70826,6917.854,95.437,540.605,538.833,0.0
53139.0,STARLINK-4185,PAYLOAD,2023-10-23 20:22:13,15.08850003,0.0001276,53.2156,110.0088,91.736,268.3778,0.0006433,9.968e-05,0.0,0 STARLINK-4185,1 53139U 22083H   23296.84876851  .00009968  00000-0  64330-3 0  9996,2 53139  53.2156 110.0088 0001276  91.7360 268.3778 15.08850003 70205,6917.85,95.437,540.598,538.832,0.0
